{
"type": "FeatureCollection",
"name": "henrico_flock_2025",
"crs": { "type": "name", "properties": { "name": "urn:ogc:def:crs:OGC:1.3:CRS84" } },
"features": [
{ "type": "Feature", "properties": { "id": "1", "location": "W Laburnum Ave & North Ave WB", "station": "Central", "address": "W Laburnum Ave & North Ave, Henrico, VA" }, "geometry": { "type": "Point", "coordinates": [ -77.439275988117004, 37.584850009337003 ] } },
{ "type": "Feature", "properties": { "id": "2", "location": "Azalea Ave & Crenshaw EB", "station": "Central", "address": "Azalea Ave & Crenshaw, Henrico, VA" }, "geometry": { "type": "Point", "coordinates": [ -77.447425964030998, 37.602236004361004 ] } },
{ "type": "Feature", "properties": { "id": "3", "location": "W Laburnum Ave & North Ave EB", "station": "Central", "address": "W Laburnum Ave & North Ave, Henrico, VA" }, "geometry": { "type": "Point", "coordinates": [ -77.439275988117004, 37.584850009337003 ] } },
{ "type": "Feature", "properties": { "id": "4", "location": "Newbridge Rd & Newbridge Cir. SB", "station": "South", "address": "Newbridge Rd & Newbridge Cir., Henrico, VA" }, "geometry": { "type": "Point", "coordinates": [ -77.342718810468, 37.548775010531998 ] } },
{ "type": "Feature", "properties": { "id": "5", "location": "E. Laburnum Ave. & Waddey St. EB", "station": "Central", "address": "E. Laburnum Ave. & Waddey St., Henrico, VA" }, "geometry": { "type": "Point", "coordinates": [ -77.425984971888994, 37.585677009813999 ] } },
{ "type": "Feature", "properties": { "id": "6", "location": "Richmond-Henrico Tnpk & Pinalto Dr.", "station": "Central", "address": "Richmond-Henrico Tnpk & Pinalto Dr., Henrico, VA" }, "geometry": { "type": "Point", "coordinates": [ -77.425020969204994, 37.587670980760997 ] } },
{ "type": "Feature", "properties": { "id": "6", "location": "Williamsburg Rd. & Cambrai Ave. WB", "station": "South", "address": "Williamsburg Rd. & Cambrai Ave., Henrico, VA" }, "geometry": { "type": "Point", "coordinates": [ -77.370771028739995, 37.518420995920003 ] } },
{ "type": "Feature", "properties": { "id": "7", "location": "Laburnum Ave & Bolling Rd. EB", "station": "Central", "address": "Laburnum Ave & Bolling Rd., Henrico, VA" }, "geometry": { "type": "Point", "coordinates": [ -77.390270017735006, 37.575252981658998 ] } },
{ "type": "Feature", "properties": { "id": "8", "location": "E. Laburnum Ave. & Richmond-Henrico Tnpk WB", "station": "Central", "address": "E. Laburnum Ave. & Richmond-Henrico Tnpk, Henrico, VA" }, "geometry": { "type": "Point", "coordinates": [ -77.423886981524007, 37.585744987048997 ] } },
{ "type": "Feature", "properties": { "id": "9", "location": "Laburnum Ave & Bolling Rd. WB", "station": "Central", "address": "Laburnum Ave & Bolling Rd., Henrico, VA" }, "geometry": { "type": "Point", "coordinates": [ -77.390270017735006, 37.575252981658998 ] } },
{ "type": "Feature", "properties": { "id": "10", "location": "Dill Ave & County Line EB", "station": "South", "address": "Dill Ave & County Line, Henrico, VA" }, "geometry": { "type": "Point", "coordinates": [ -77.414135844136993, 37.570668050957998 ] } },
{ "type": "Feature", "properties": { "id": "11", "location": "Azalea Ave & Crenshaw WB", "station": "Central", "address": "Azalea Ave & Crenshaw, Henrico, VA" }, "geometry": { "type": "Point", "coordinates": [ -77.447425964030998, 37.602236004361004 ] } },
{ "type": "Feature", "properties": { "id": "12", "location": "Delmont St & E. Laburnum Ave. NB", "station": "Central", "address": "Delmont St & E. Laburnum Ave., Henrico, VA" }, "geometry": { "type": "Point", "coordinates": [ -77.429172022933997, 37.585537995949998 ] } },
{ "type": "Feature", "properties": { "id": "13", "location": "Hawkes Ln & Newbridge Cir WB", "station": "South", "address": "Hawkes Ln & Newbridge Cir, Henrico, VA" }, "geometry": { "type": "Point", "coordinates": [ -77.341905011489004, 37.546807987404001 ] } },
{ "type": "Feature", "properties": { "id": "14", "location": "Lowelll St. & Nine Mile Rd SB", "station": "South", "address": "Lowelll St. & Nine Mile Rd, Henrico, VA" }, "geometry": { "type": "Point", "coordinates": [ -77.346569037692007, 37.551178018352999 ] } },
{ "type": "Feature", "properties": { "id": "15", "location": "E. Laburnum Ave. & Meadowbridge Rd EB", "station": "Central", "address": "E. Laburnum Ave. & Meadowbridge Rd, Henrico, VA" }, "geometry": { "type": "Point", "coordinates": [ -77.423886981524007, 37.585744987048997 ] } },
{ "type": "Feature", "properties": { "id": "16", "location": "Laburnum Ave & Walnut Ave WB", "station": "Central", "address": "Laburnum Ave & Walnut Ave, Henrico, VA" }, "geometry": { "type": "Point", "coordinates": [ -77.416176133516998, 37.585213197202002 ] } },
{ "type": "Feature", "properties": { "id": "17", "location": "Meadowbridge Rd & RR Tracks WB", "station": "Central", "address": "Meadowbridge Rd & RR Tracks, Henrico, VA" }, "geometry": { "type": "Point", "coordinates": [ -77.420103963854004, 37.572936706850001 ] } },
{ "type": "Feature", "properties": { "id": "18", "location": "Newbridge Rd & Pleasant St NB", "station": "South", "address": "Newbridge Rd & Pleasant St, Henrico, VA" }, "geometry": { "type": "Point", "coordinates": [ -77.344077014058996, 37.542125982019002 ] } },
{ "type": "Feature", "properties": { "id": "19", "location": "Pilots Ln. & E Laburnum Ave NB", "station": "Central", "address": "Pilots Ln. & E Laburnum Ave, Henrico, VA" }, "geometry": { "type": "Point", "coordinates": [ -77.433071032833993, 37.585177993209001 ] } },
{ "type": "Feature", "properties": { "id": "20", "location": "Pinalto Dr & E. Laburnum Ave.", "station": "Central", "address": "Pinalto Dr & E. Laburnum Ave., Henrico, VA" }, "geometry": { "type": "Point", "coordinates": [ -77.427463958705005, 37.585621018700998 ] } },
{ "type": "Feature", "properties": { "id": "21", "location": "Richmond-Henrico Tnpk & RIR Access NB", "station": "Central", "address": "Richmond-Henrico Tnpk & RIR Access, Henrico, VA" }, "geometry": { "type": "Point", "coordinates": [ -77.426067030721001, 37.589453979204002 ] } },
{ "type": "Feature", "properties": { "id": "22", "location": "Bolling Rd. & Laburnum Ave. SB", "station": "South", "address": "Bolling Rd. & Laburnum Ave., Henrico, VA" }, "geometry": { "type": "Point", "coordinates": [ -77.390270017735006, 37.575252981658998 ] } },
{ "type": "Feature", "properties": { "id": "23", "location": "Kenway Ave. & Nine Mile Rd. NB", "station": "South", "address": "Kenway Ave. & Nine Mile Rd., Henrico, VA" }, "geometry": { "type": "Point", "coordinates": [ -77.366503298919, 37.545759620864999 ] } },
{ "type": "Feature", "properties": { "id": "24", "location": "N. Laburnum Ave. & Steeple Ln SB", "station": "South", "address": "N. Laburnum Ave. & Steeple Ln, Henrico, VA" }, "geometry": { "type": "Point", "coordinates": [ -77.370800030124997, 37.545500997242002 ] } },
{ "type": "Feature", "properties": { "id": "25", "location": "N. Laburnum Ave. & Steeple Ln NB", "station": "South", "address": "N. Laburnum Ave. & Steeple Ln, Henrico, VA" }, "geometry": { "type": "Point", "coordinates": [ -77.370800030124997, 37.545500997242002 ] } },
{ "type": "Feature", "properties": { "id": "26", "location": "Kingsridge Pkwy & N. Laburnum Ave. SB", "station": "South", "address": "Kingsridge Pkwy & N. Laburnum Ave., Henrico, VA" }, "geometry": { "type": "Point", "coordinates": [ -77.371483239053006, 37.551610189281 ] } },
{ "type": "Feature", "properties": { "id": "27", "location": "Kingsridge Pkwy & N. Laburnum Ave. NB", "station": "South", "address": "Kingsridge Pkwy & N. Laburnum Ave., Henrico, VA" }, "geometry": { "type": "Point", "coordinates": [ -77.371483239053006, 37.551610189281 ] } },
{ "type": "Feature", "properties": { "id": "28", "location": "Hart St. & Ceadarwood St. EB", "station": "South", "address": "Hart St. & Ceadarwood St., Henrico, VA" }, "geometry": { "type": "Point", "coordinates": [ -77.314451009647001, 37.533604017241998 ] } },
{ "type": "Feature", "properties": { "id": "29", "location": "Hanover Rd. & Honeysuckle Ct.", "station": "South", "address": "Hanover Rd. & Honeysuckle Ct., Henrico, VA" }, "geometry": { "type": "Point", "coordinates": [ -77.312171970174006, 37.530891004730996 ] } },
{ "type": "Feature", "properties": { "id": "30", "location": "Darbytown Rd. SB", "station": "South", "address": "Darbytown Rd., Henrico, VA" }, "geometry": { "type": "Point", "coordinates": [ -77.325003742700005, 37.465011049022998 ] } },
{ "type": "Feature", "properties": { "id": "31", "location": "Darbytown Rd. NB", "station": "South", "address": "Darbytown Rd., Henrico, VA" }, "geometry": { "type": "Point", "coordinates": [ -77.325003742700005, 37.465011049022998 ] } },
{ "type": "Feature", "properties": { "id": "32", "location": "Gordon Ln.", "station": "South", "address": "Gordon Ln., Henrico, VA" }, "geometry": { "type": "Point", "coordinates": [ -77.392831379154998, 37.546038568268997 ] } },
{ "type": "Feature", "properties": { "id": "33", "location": "Mayland Dr. & Pemberton EB", "station": "West", "address": "Mayland Dr. & Pemberton, Henrico, VA" }, "geometry": { "type": "Point", "coordinates": [ -77.564081017655994, 37.637872000987997 ] } },
{ "type": "Feature", "properties": { "id": "35", "location": "Mayland Dr. & Tuckernuck Dr. EB", "station": "West", "address": "Mayland Dr. & Tuckernuck Dr., Henrico, VA" }, "geometry": { "type": "Point", "coordinates": [ -77.556454994508996, 37.631260984405998 ] } },
{ "type": "Feature", "properties": { "id": "36", "location": "Mayland Dr. & Tuckernuck Dr. WB", "station": "West", "address": "Mayland Dr. & Tuckernuck Dr., Henrico, VA" }, "geometry": { "type": "Point", "coordinates": [ -77.556454994508996, 37.631260984405998 ] } },
{ "type": "Feature", "properties": { "id": "37", "location": "English Hills Dr. & Quarter Mill Rd.", "station": "West", "address": "English Hills Dr. & Quarter Mill Rd., Henrico, VA" }, "geometry": { "type": "Point", "coordinates": [ -77.552364039026003, 37.625801012677002 ] } },
{ "type": "Feature", "properties": { "id": "38", "location": "Glenside Dr. NB at Forest Ave.", "station": "West", "address": "Glenside Dr. at Forest Ave., Henrico, VA" }, "geometry": { "type": "Point", "coordinates": [ -77.526386006514997, 37.603403980659003 ] } },
{ "type": "Feature", "properties": { "id": "39", "location": "Tuckernuck Dr. near St. Martins Ln NB", "station": "West", "address": "Tuckernuck Dr. near St. Martins Ln, Henrico, VA" }, "geometry": { "type": "Point", "coordinates": [ -77.551397750186993, 37.634192142895998 ] } },
{ "type": "Feature", "properties": { "id": "40", "location": "Tuckernuck Dr. near St. Martins Ln SB", "station": "West", "address": "Tuckernuck Dr. near St. Martins Ln, Henrico, VA" }, "geometry": { "type": "Point", "coordinates": [ -77.551397750186993, 37.634192142895998 ] } },
{ "type": "Feature", "properties": { "id": "41", "location": "Coppermill Trce & Silver Stream Ln.", "station": "West", "address": "Coppermill Trce & Silver Stream Ln., Henrico, VA" }, "geometry": { "type": "Point", "coordinates": [ -77.556152994537996, 37.638067005964999 ] } },
{ "type": "Feature", "properties": { "id": "42", "location": "Wistar Village Dr & Wistar Rd.", "station": "West", "address": "Wistar Village Dr & Wistar Rd., Henrico, VA" }, "geometry": { "type": "Point", "coordinates": [ -77.511913980130004, 37.622760016294997 ] } },
{ "type": "Feature", "properties": { "id": "43", "location": "Sprenkle Ln near Staples Mill Rd", "station": "West", "address": "Sprenkle Ln near Staples Mill Rd, Henrico, VA" }, "geometry": { "type": "Point", "coordinates": [ -77.503572100891006, 37.623571919625 ] } },
{ "type": "Feature", "properties": { "id": "44", "location": "Bremner Blvd & Balmoral Ave", "station": "West", "address": "Bremner Blvd & Balmoral Ave, Henrico, VA" }, "geometry": { "type": "Point", "coordinates": [ -77.501198974206005, 37.618259982028 ] } },
{ "type": "Feature", "properties": { "id": "45", "location": "Glenside Dr. near Staples Mill Rd. SB", "station": "West", "address": "Glenside Dr. near Staples Mill Rd., Henrico, VA" }, "geometry": { "type": "Point", "coordinates": [ -77.503572100891006, 37.623571919625 ] } },
{ "type": "Feature", "properties": { "id": "46", "location": "Glenside Dr. near Cloverdale St. NB", "station": "West", "address": "Glenside Dr. near Cloverdale St., Henrico, VA" }, "geometry": { "type": "Point", "coordinates": [ -77.501313389306006, 37.612477709312003 ] } },
{ "type": "Feature", "properties": { "id": "47", "location": "Glenside Dr. near Bethlehem Rd. NB", "station": "West", "address": "Glenside Dr. near Bethlehem Rd., Henrico, VA" }, "geometry": { "type": "Point", "coordinates": [ -77.516845175607003, 37.613443299461998 ] } },
{ "type": "Feature", "properties": { "id": "48", "location": "Glenside Dr. near Bethlehem Rd. SB", "station": "West", "address": "Glenside Dr. near Bethlehem Rd., Henrico, VA" }, "geometry": { "type": "Point", "coordinates": [ -77.516845175607003, 37.613443299461998 ] } },
{ "type": "Feature", "properties": { "id": "49", "location": "Bethlehem Rd. & Basie Rd.", "station": "West", "address": "Bethlehem Rd. & Basie Rd., Henrico, VA" }, "geometry": { "type": "Point", "coordinates": [ -77.517831017039001, 37.614325013763001 ] } },
{ "type": "Feature", "properties": { "id": "50", "location": "Quarter Mill WB & English Hill Dr.", "station": "West", "address": "Quarter Mill & English Hill Dr., Henrico, VA" }, "geometry": { "type": "Point", "coordinates": [ -77.552364039026003, 37.625801012677002 ] } },
{ "type": "Feature", "properties": { "id": "51", "location": "Deep Run Park Outbound", "station": "West", "address": "Deep Run Park Outbound, Henrico, VA" }, "geometry": { "type": "Point", "coordinates": [ -77.587393, 37.62631 ] } },
{ "type": "Feature", "properties": { "id": "52", "location": "Crump Park\/ RF&P", "station": "Central", "address": "Crump Park\/ RF&P, Henrico, VA" }, "geometry": { "type": "Point", "coordinates": [ -77.515628279837998, 37.675808140565003 ] } },
{ "type": "Feature", "properties": { "id": "53", "location": "Glover Park", "station": "Central", "address": "Glover Park, Henrico, VA" }, "geometry": { "type": "Point", "coordinates": [ -77.5277752, 37.6266351 ] } },
{ "type": "Feature", "properties": { "id": "54", "location": "Dorey Park", "station": "South", "address": "Dorey Park, Henrico, VA" }, "geometry": { "type": "Point", "coordinates": [ -77.337748520416994, 37.465853239697999 ] } },
{ "type": "Feature", "properties": { "id": "55", "location": "Westbriar Dr. & Patterson Ave SB", "station": "West", "address": "Westbriar Dr. & Patterson Ave, Henrico, VA" }, "geometry": { "type": "Point", "coordinates": [ -77.623108978207995, 37.597706004789998 ] } },
{ "type": "Feature", "properties": { "id": "56", "location": "Lauderdale Dr. & Patterson Ave SB", "station": "West", "address": "Lauderdale Dr. & Patterson Ave, Henrico, VA" }, "geometry": { "type": "Point", "coordinates": [ -77.617807172992002, 37.597423408924001 ] } },
{ "type": "Feature", "properties": { "id": "57", "location": "Lauderdale Dr. & Patterson Ave NB", "station": "West", "address": "Lauderdale Dr. & Patterson Ave, Henrico, VA" }, "geometry": { "type": "Point", "coordinates": [ -77.617807172992002, 37.597423408924001 ] } },
{ "type": "Feature", "properties": { "id": "58", "location": "Parham Rd & River Rd NB", "station": "West", "address": "Parham Rd & River Rd, Henrico, VA" }, "geometry": { "type": "Point", "coordinates": [ -77.577390976985001, 37.571678980054003 ] } },
{ "type": "Feature", "properties": { "id": "59", "location": "Parham Rd & River Rd SB", "station": "West", "address": "Parham Rd & River Rd, Henrico, VA" }, "geometry": { "type": "Point", "coordinates": [ -77.577390976985001, 37.571678980054003 ] } },
{ "type": "Feature", "properties": { "id": "60", "location": "Monument Ave. & Willow Lawn Dr. WB", "station": "West", "address": "Monument Ave. & Willow Lawn Dr., Henrico, VA" }, "geometry": { "type": "Point", "coordinates": [ -77.501983017428998, 37.578751001310998 ] } },
{ "type": "Feature", "properties": { "id": "61", "location": "Monument Ave. & Willow Lawn Dr. EB", "station": "West", "address": "Monument Ave. & Willow Lawn Dr., Henrico, VA" }, "geometry": { "type": "Point", "coordinates": [ -77.501983017428998, 37.578751001310998 ] } },
{ "type": "Feature", "properties": { "id": "62", "location": "Gaskins Rd. & Three Chopt Rd. SB", "station": "West", "address": "Gaskins Rd. & Three Chopt Rd., Henrico, VA" }, "geometry": { "type": "Point", "coordinates": [ -77.577706974733999, 37.630847002208 ] } },
{ "type": "Feature", "properties": { "id": "63", "location": "Gaskins Rd. & Three Chopt Rd. SE", "station": "West", "address": "Gaskins Rd. & Three Chopt Rd. SE, Henrico, VA" }, "geometry": { "type": "Point", "coordinates": [ -77.577706974733999, 37.630847002208 ] } },
{ "type": "Feature", "properties": { "id": "64", "location": "Gaskins Rd. & Three Chopt Rd. NE", "station": "West", "address": "Gaskins Rd. & Three Chopt Rd. NE, Henrico, VA" }, "geometry": { "type": "Point", "coordinates": [ -77.577706974733999, 37.630847002208 ] } },
{ "type": "Feature", "properties": { "id": "65", "location": "Gaskins Rd. & Three Chopt Rd. NW", "station": "West", "address": "Gaskins Rd. & Three Chopt Rd. NW, Henrico, VA" }, "geometry": { "type": "Point", "coordinates": [ -77.577706974733999, 37.630847002208 ] } },
{ "type": "Feature", "properties": { "id": "66", "location": "Nuckols Rd. & Sadler Rd. NB", "station": "West", "address": "Nuckols Rd. & Sadler Rd., Henrico, VA" }, "geometry": { "type": "Point", "coordinates": [ -77.576140983764006, 37.666568997161001 ] } },
{ "type": "Feature", "properties": { "id": "67", "location": "Nuckols Rd. & Sadler Rd. SB", "station": "West", "address": "Nuckols Rd. & Sadler Rd., Henrico, VA" }, "geometry": { "type": "Point", "coordinates": [ -77.576140983764006, 37.666568997161001 ] } },
{ "type": "Feature", "properties": { "id": "68", "location": "N. Gayton Rd. & W. Broad St. NB", "station": "West", "address": "N. Gayton Rd. & W. Broad St., Henrico, VA" }, "geometry": { "type": "Point", "coordinates": [ -77.633031391367993, 37.658534984877001 ] } },
{ "type": "Feature", "properties": { "id": "69", "location": "N. Gayton Rd. & W. Broad St. SB", "station": "West", "address": "N. Gayton Rd. & W. Broad St., Henrico, VA" }, "geometry": { "type": "Point", "coordinates": [ -77.633031391367993, 37.658534984877001 ] } },
{ "type": "Feature", "properties": { "id": "70", "location": "N. Gayton Rd. & W. Broad St. SB", "station": "West", "address": "N. Gayton Rd. & W. Broad St., Henrico, VA" }, "geometry": { "type": "Point", "coordinates": [ -77.633031391367993, 37.658534984877001 ] } },
{ "type": "Feature", "properties": { "id": "71", "location": "N. Gayton Rd. & W. Broad St. SB", "station": "West", "address": "N. Gayton Rd. & W. Broad St., Henrico, VA" }, "geometry": { "type": "Point", "coordinates": [ -77.633031391367993, 37.658534984877001 ] } },
{ "type": "Feature", "properties": { "id": "72", "location": "John Rolfe Pkwy & Ridgefield Pkwy. SB", "station": "West", "address": "John Rolfe Pkwy & Ridgefield Pkwy., Henrico, VA" }, "geometry": { "type": "Point", "coordinates": [ -77.623374013985995, 37.620440995144001 ] } },
{ "type": "Feature", "properties": { "id": "73", "location": "John Rolfe Pkwy & Ridgefield Pkwy. NB", "station": "West", "address": "John Rolfe Pkwy & Ridgefield Pkwy., Henrico, VA" }, "geometry": { "type": "Point", "coordinates": [ -77.623374013985995, 37.620440995144001 ] } },
{ "type": "Feature", "properties": { "id": "74", "location": "Ridgefield Pkwy & Ridgefield Green Dr. WB", "station": "West", "address": "Ridgefield Pkwy & Ridgefield Green Dr., Henrico, VA" }, "geometry": { "type": "Point", "coordinates": [ -77.620197691778003, 37.6196942933 ] } },
{ "type": "Feature", "properties": { "id": "75", "location": "Ridgefield Pkwy & Glen Eagles Dr. EB", "station": "West", "address": "Ridgefield Pkwy & Glen Eagles Dr., Henrico, VA" }, "geometry": { "type": "Point", "coordinates": [ -77.613200227549996, 37.619373811232002 ] } },
{ "type": "Feature", "properties": { "id": "76", "location": "Eastridge Rd. & Three Chopt Rd. EB", "station": "West", "address": "Eastridge Rd. & Three Chopt Rd., Henrico, VA" }, "geometry": { "type": "Point", "coordinates": [ -77.559315989520002, 37.603216980398997 ] } },
{ "type": "Feature", "properties": { "id": "78", "location": "Three Chopt Rd. & Eastridge Rd. NB", "station": "West", "address": "Three Chopt Rd. & Eastridge Rd., Henrico, VA" }, "geometry": { "type": "Point", "coordinates": [ -77.559315989520002, 37.603216980398997 ] } },
{ "type": "Feature", "properties": { "id": "79", "location": "Three Chopt Rd. @ Freeman HS EB", "station": "West", "address": "Three Chopt Rd. @ Freeman HS, Henrico, VA" }, "geometry": { "type": "Point", "coordinates": [ -77.585948061937003, 37.637164149264002 ] } },
{ "type": "Feature", "properties": { "id": "80", "location": "Shrader Rd. & E. Parham Rd. NB", "station": "West", "address": "Shrader Rd. & E. Parham Rd., Henrico, VA" }, "geometry": { "type": "Point", "coordinates": [ -77.529641034793997, 37.630747006103 ] } },
{ "type": "Feature", "properties": { "id": "81", "location": "Shrader Rd. & E. Parham Rd. SB", "station": "West", "address": "Shrader Rd. & E. Parham Rd., Henrico, VA" }, "geometry": { "type": "Point", "coordinates": [ -77.529641034793997, 37.630747006103 ] } },
{ "type": "Feature", "properties": { "id": "82", "location": "Hungary Spring Rd. & Eunice Dr. SB", "station": "West", "address": "Hungary Spring Rd. & Eunice Dr., Henrico, VA" }, "geometry": { "type": "Point", "coordinates": [ -77.518439040294993, 37.634740982966001 ] } },
{ "type": "Feature", "properties": { "id": "83", "location": "Hungary Spring Rd. & Eunice Dr. NB", "station": "West", "address": "Hungary Spring Rd. & Eunice Dr., Henrico, VA" }, "geometry": { "type": "Point", "coordinates": [ -77.518439040294993, 37.634740982966001 ] } },
{ "type": "Feature", "properties": { "id": "84", "location": "Pump Rd. & Castile NB", "station": "West", "address": "Pump Rd. & Castile, Henrico, VA" }, "geometry": { "type": "Point", "coordinates": [ -77.607375140119004, 37.595578719673 ] } },
{ "type": "Feature", "properties": { "id": "85", "location": "N. Gaskins Rd. & Tilbury Ln.", "station": "West", "address": "N. Gaskins Rd. & Tilbury Ln., Henrico, VA" }, "geometry": { "type": "Point", "coordinates": [ -77.595048964765994, 37.594542003979001 ] } },
{ "type": "Feature", "properties": { "id": "86", "location": "Quioccasin Rd. @ Henrico Fire #9 EB", "station": "West", "address": "Quioccasin Rd. @ Henrico Fire #9, Henrico, VA" }, "geometry": { "type": "Point", "coordinates": [ -77.581573, 37.606866 ] } },
{ "type": "Feature", "properties": { "id": "87", "location": "Gay Ave & Hillbrook Ave. WB", "station": "South", "address": "Gay Ave & Hillbrook Ave., Henrico, VA" }, "geometry": { "type": "Point", "coordinates": [ -77.372954011602999, 37.525560994411997 ] } },
{ "type": "Feature", "properties": { "id": "88", "location": "Starling Dr. & Cloisters NB", "station": "West", "address": "Starling Dr. & Cloisters, Henrico, VA" }, "geometry": { "type": "Point", "coordinates": [ -77.567838960125997, 37.608057906669004 ] } },
{ "type": "Feature", "properties": { "id": "89", "location": "Starling Dr. & Cloisters SB", "station": "West", "address": "Starling Dr. & Cloisters, Henrico, VA" }, "geometry": { "type": "Point", "coordinates": [ -77.567838960125997, 37.608057906669004 ] } },
{ "type": "Feature", "properties": { "id": "90", "location": "Gay Ave & Dodds Creek NE", "station": "South", "address": "Gay Ave & Dodds Creek NE, Henrico, VA" }, "geometry": { "type": "Point", "coordinates": [ -77.361523023508994, 37.526671009848997 ] } },
{ "type": "Feature", "properties": { "id": "91", "location": "Oakland Rd & Almond Creek EB", "station": "South", "address": "Oakland Rd & Almond Creek, Henrico, VA" }, "geometry": { "type": "Point", "coordinates": [ -77.382458000156007, 37.500485986238999 ] } },
{ "type": "Feature", "properties": { "id": "92", "location": "Oakano Dr & Oakland NB", "station": "South", "address": "Oakano Dr & Oakland, Henrico, VA" }, "geometry": { "type": "Point", "coordinates": [ -77.391937010638003, 37.497517996234002 ] } },
{ "type": "Feature", "properties": { "id": "93", "location": "Short Pump Park Outbound Right", "station": "West", "address": "Short Pump Park Outbound Right, Henrico, VA" }, "geometry": { "type": "Point", "coordinates": [ -77.61166, 37.64876 ] } },
{ "type": "Feature", "properties": { "id": "94", "location": "Masonic Ln SB", "station": "South", "address": "Masonic Ln, Henrico, VA" }, "geometry": { "type": "Point", "coordinates": [ -77.375763063017004, 37.527526318440998 ] } },
{ "type": "Feature", "properties": { "id": "F#001", "location": "Nine Mile Rd. & Westover Ave. WB", "station": "South", "address": "Nine Mile Rd. & Westover Ave., Henrico, VA" }, "geometry": { "type": "Point", "coordinates": [ -77.348689994471002, 37.551682986110002 ] } },
{ "type": "Feature", "properties": { "id": "F#002", "location": "Nine Mile Rd. & Newbridge Rd. EB", "station": "South", "address": "Nine Mile Rd. & Newbridge Rd., Henrico, VA" }, "geometry": { "type": "Point", "coordinates": [ -77.343129188448003, 37.551061006985002 ] } },
{ "type": "Feature", "properties": { "id": "F#003", "location": "E. Nine Mile Rd. & N. Kalmia Ave. EB", "station": "South", "address": "E. Nine Mile Rd. & N. Kalmia Ave., Henrico, VA" }, "geometry": { "type": "Point", "coordinates": [ -77.325776972493998, 37.544153983492002 ] } },
{ "type": "Feature", "properties": { "id": "F#004", "location": "E. Nine Mile Rd. & N. Rose Ave. WB", "station": "South", "address": "E. Nine Mile Rd. & N. Rose Ave., Henrico, VA" }, "geometry": { "type": "Point", "coordinates": [ -77.321480995659002, 37.539859012485998 ] } },
{ "type": "Feature", "properties": { "id": "F#005", "location": "Williamsburg Rd. & Naglee Ave EB", "station": "South", "address": "Williamsburg Rd. & Naglee Ave, Henrico, VA" }, "geometry": { "type": "Point", "coordinates": [ -77.312673962355007, 37.522833984122997 ] } },
{ "type": "Feature", "properties": { "id": "F#010", "location": "W. Williamsburg Rd. & Early Ave. WB", "station": "South", "address": "W. Williamsburg Rd. & Early Ave., Henrico, VA" }, "geometry": { "type": "Point", "coordinates": [ -77.321804034208, 37.522972997986997 ] } },
{ "type": "Feature", "properties": { "id": "F#095", "location": "Brook Run Dr. & Brook Rd.", "station": "Central", "address": "Brook Run Dr. & Brook Rd., Henrico, VA" }, "geometry": { "type": "Point", "coordinates": [ -77.456876978956998, 37.609086994831003 ] } },
{ "type": "Feature", "properties": { "id": "F#096", "location": "WB Nine Mile Rd. & Dabbs House", "station": "South", "address": "WB Nine Mile Rd. & Dabbs House, Henrico, VA" }, "geometry": { "type": "Point", "coordinates": [ -77.381734977188003, 37.541372993746997 ] } },
{ "type": "Feature", "properties": { "id": "F#097", "location": "Stony Run Pkwy SB & Evergreen Rd.", "station": "South", "address": "Stony Run Pkwy & Evergreen Rd., Henrico, VA" }, "geometry": { "type": "Point", "coordinates": [ -77.386979031091002, 37.538367997640002 ] } },
{ "type": "Feature", "properties": { "id": "F#098", "location": "Pouncey Tract Rd. & P.T. Park", "station": "West", "address": "Pouncey Tract Rd. & P.T. Park, Henrico, VA" }, "geometry": { "type": "Point", "coordinates": [ -77.611844940967003, 37.651390466245999 ] } },
{ "type": "Feature", "properties": { "id": "F#099", "location": "Fargo Rd. & Parham Rd.", "station": "West", "address": "Fargo Rd. & Parham Rd., Henrico, VA" }, "geometry": { "type": "Point", "coordinates": [ -77.564747965692007, 37.607373985278997 ] } }
]
}
